{
  "type": "FeatureCollection",
  "features": [
    {
      "type": "Feature",
      "properties": {
        "norad_id": 34420,
        "name": "COSMOS 2251 DEB",
        "group": "cosmos-2251-debris",
        "lat": 25.274175634241445,
        "lon": 92.88518228608417,
        "alt_km": 740.0766903015592,
        "timestamp": "2025-12-22T11:33:20.834355+00:00",
        "meta_object_name": "COSMOS 2251 DEB",
        "meta_object_id": "1993-036RM",
        "meta_epoch": "2025-12-22T01:55:12.984096",
        "meta_mean_motion": 14.68323835,
        "meta_eccentricity": 0.0106225,
        "meta_inclination": 74.0333,
        "meta_ra_of_asc_node": 85.8925,
        "meta_arg_of_pericenter": 204.8179,
        "meta_mean_anomaly": 220.3722,
        "meta_ephemeris_type": 0,
        "meta_classification_type": "U",
        "meta_norad_cat_id": 34420,
        "meta_element_set_no": 999,
        "meta_rev_at_epoch": 89907,
        "meta_bstar": 0.00020277,
        "meta_mean_motion_dot": 1.239e-05,
        "meta_mean_motion_ddot": 0,
        "tle_line1": "1 34420U 93036RM  25356.08001139  .00001239  00000+0  20277-3 0  9992",
        "tle_line2": "2 34420  74.0333  85.8925 0106225 204.8179 220.3722 14.68323835899073"
      },
      "geometry": {
        "type": "Point",
        "coordinates": [
          92.88518228608417,
          25.274175634241445
        ]
      }
    },
    {
      "type": "Feature",
      "properties": {
        "norad_id": 34425,
        "name": "COSMOS 2251 DEB",
        "group": "cosmos-2251-debris",
        "lat": -70.40059423201008,
        "lon": -90.5594464520071,
        "alt_km": 695.6951652909047,
        "timestamp": "2025-12-22T11:33:20.834365+00:00",
        "meta_object_name": "COSMOS 2251 DEB",
        "meta_object_id": "1993-036RS",
        "meta_epoch": "2025-12-21T06:27:49.476096",
        "meta_mean_motion": 14.62170318,
        "meta_eccentricity": 0.0024348,
        "meta_inclination": 74.0185,
        "meta_ra_of_asc_node": 38.1671,
        "meta_arg_of_pericenter": 162.2654,
        "meta_mean_anomaly": 197.9368,
        "meta_ephemeris_type": 0,
        "meta_classification_type": "U",
        "meta_norad_cat_id": 34425,
        "meta_element_set_no": 999,
        "meta_rev_at_epoch": 88865,
        "meta_bstar": 0.00038687,
        "meta_mean_motion_dot": 1.925e-05,
        "meta_mean_motion_ddot": 0,
        "tle_line1": "1 34425U 93036RS  25355.26932264  .00001925  00000+0  38687-3 0  9994",
        "tle_line2": "2 34425  74.0185  38.1671 0024348 162.2654 197.9368 14.62170318888659"
      },
      "geometry": {
        "type": "Point",
        "coordinates": [
          -90.5594464520071,
          -70.40059423201008
        ]
      }
    },
    {
      "type": "Feature",
      "properties": {
        "norad_id": 34429,
        "name": "COSMOS 2251 DEB",
        "group": "cosmos-2251-debris",
        "lat": -66.67831527565657,
        "lon": 104.9202065436636,
        "alt_km": 432.6008131428307,
        "timestamp": "2025-12-22T11:33:20.834376+00:00",
        "meta_object_name": "COSMOS 2251 DEB",
        "meta_object_id": "1993-036RW",
        "meta_epoch": "2025-12-21T17:16:48.118368",
        "meta_mean_motion": 15.45129102,
        "meta_eccentricity": 0.0012156,
        "meta_inclination": 73.9669,
        "meta_ra_of_asc_node": 148.4249,
        "meta_arg_of_pericenter": 348.9874,
        "meta_mean_anomaly": 23.9309,
        "meta_ephemeris_type": 0,
        "meta_classification_type": "U",
        "meta_norad_cat_id": 34429,
        "meta_element_set_no": 999,
        "meta_rev_at_epoch": 89587,
        "meta_bstar": 0.0050564,
        "meta_mean_motion_dot": 0.00247928,
        "meta_mean_motion_ddot": 0,
        "tle_line1": "1 34429U 93036RW  25355.72000137  .00247928  00000+0  50564-2 0  9996",
        "tle_line2": "2 34429  73.9669 148.4249 0012156 348.9874  23.9309 15.45129102895877"
      },
      "geometry": {
        "type": "Point",
        "coordinates": [
          104.9202065436636,
          -66.67831527565657
        ]
      }
    },
    {
      "type": "Feature",
      "properties": {
        "norad_id": 34430,
        "name": "COSMOS 2251 DEB",
        "group": "cosmos-2251-debris",
        "lat": -28.08275429059017,
        "lon": -83.38805478759738,
        "alt_km": 724.8004928080081,
        "timestamp": "2025-12-22T11:33:20.834386+00:00",
        "meta_object_name": "COSMOS 2251 DEB",
        "meta_object_id": "1993-036RX",
        "meta_epoch": "2025-12-22T01:41:01.205376",
        "meta_mean_motion": 14.39659304,
        "meta_eccentricity": 0.0060776,
        "meta_inclination": 74.0518,
        "meta_ra_of_asc_node": 286.1467,
        "meta_arg_of_pericenter": 353.6095,
        "meta_mean_anomaly": 6.4277,
        "meta_ephemeris_type": 0,
        "meta_classification_type": "U",
        "meta_norad_cat_id": 34430,
        "meta_element_set_no": 999,
        "meta_rev_at_epoch": 88089,
        "meta_bstar": 0.0004147,
        "meta_mean_motion_dot": 1.299e-05,
        "meta_mean_motion_ddot": 0,
        "tle_line1": "1 34430U 93036RX  25356.07015284  .00001299  00000+0  41470-3 0  9992",
        "tle_line2": "2 34430  74.0518 286.1467 0060776 353.6095   6.4277 14.39659304880895"
      },
      "geometry": {
        "type": "Point",
        "coordinates": [
          -83.38805478759738,
          -28.08275429059017
        ]
      }
    },
    {
      "type": "Feature",
      "properties": {
        "norad_id": 34431,
        "name": "COSMOS 2251 DEB",
        "group": "cosmos-2251-debris",
        "lat": -31.827487025260613,
        "lon": -12.225761392740136,
        "alt_km": 786.4568401203514,
        "timestamp": "2025-12-22T11:33:20.834396+00:00",
        "meta_object_name": "COSMOS 2251 DEB",
        "meta_object_id": "1993-036RY",
        "meta_epoch": "2025-12-21T21:07:25.926816",
        "meta_mean_motion": 14.28804187,
        "meta_eccentricity": 0.0067866,
        "meta_inclination": 74.0739,
        "meta_ra_of_asc_node": 158.6541,
        "meta_arg_of_pericenter": 141.926,
        "meta_mean_anomaly": 218.6714,
        "meta_ephemeris_type": 0,
        "meta_classification_type": "U",
        "meta_norad_cat_id": 34431,
        "meta_element_set_no": 999,
        "meta_rev_at_epoch": 87273,
        "meta_bstar": 0.00062894,
        "meta_mean_motion_dot": 1.6e-05,
        "meta_mean_motion_ddot": 0,
        "tle_line1": "1 34431U 93036RY  25355.88016119  .00001600  00000+0  62894-3 0  9998",
        "tle_line2": "2 34431  74.0739 158.6541 0067866 141.9260 218.6714 14.28804187872732"
      },
      "geometry": {
        "type": "Point",
        "coordinates": [
          -12.225761392740136,
          -31.827487025260613
        ]
      }
    },
    {
      "type": "Feature",
      "properties": {
        "norad_id": 34432,
        "name": "COSMOS 2251 DEB",
        "group": "cosmos-2251-debris",
        "lat": 29.628759181200696,
        "lon": 94.66123336993601,
        "alt_km": 974.2338762529926,
        "timestamp": "2025-12-22T11:33:20.834406+00:00",
        "meta_object_name": "COSMOS 2251 DEB",
        "meta_object_id": "1993-036RZ",
        "meta_epoch": "2025-12-21T17:09:52.890336",
        "meta_mean_motion": 14.02941941,
        "meta_eccentricity": 0.0181742,
        "meta_inclination": 73.8282,
        "meta_ra_of_asc_node": 86.5116,
        "meta_arg_of_pericenter": 167.7838,
        "meta_mean_anomaly": 316.0088,
        "meta_ephemeris_type": 0,
        "meta_classification_type": "U",
        "meta_norad_cat_id": 34432,
        "meta_element_set_no": 999,
        "meta_rev_at_epoch": 85810,
        "meta_bstar": 0.00083158,
        "meta_mean_motion_dot": 1.467e-05,
        "meta_mean_motion_ddot": 0,
        "tle_line1": "1 34432U 93036RZ  25355.71519549  .00001467  00000+0  83158-3 0  9993",
        "tle_line2": "2 34432  73.8282  86.5116 0181742 167.7838 316.0088 14.02941941858101"
      },
      "geometry": {
        "type": "Point",
        "coordinates": [
          94.66123336993601,
          29.628759181200696
        ]
      }
    },
    {
      "type": "Feature",
      "properties": {
        "norad_id": 34433,
        "name": "COSMOS 2251 DEB",
        "group": "cosmos-2251-debris",
        "lat": 43.88473695598405,
        "lon": 153.69433142006642,
        "alt_km": 919.1609511622646,
        "timestamp": "2025-12-22T11:33:20.834416+00:00",
        "meta_object_name": "COSMOS 2251 DEB",
        "meta_object_id": "1993-036SA",
        "meta_epoch": "2025-12-21T20:02:32.024832",
        "meta_mean_motion": 14.12888627,
        "meta_eccentricity": 0.0152796,
        "meta_inclination": 74.0104,
        "meta_ra_of_asc_node": 138.8303,
        "meta_arg_of_pericenter": 274.9863,
        "meta_mean_anomaly": 83.385,
        "meta_ephemeris_type": 0,
        "meta_classification_type": "U",
        "meta_norad_cat_id": 34433,
        "meta_element_set_no": 999,
        "meta_rev_at_epoch": 86078,
        "meta_bstar": 0.00089615,
        "meta_mean_motion_dot": 1.837e-05,
        "meta_mean_motion_ddot": 0,
        "tle_line1": "1 34433U 93036SA  25355.83509288  .00001837  00000+0  89615-3 0  9991",
        "tle_line2": "2 34433  74.0104 138.8303 0152796 274.9863  83.3850 14.12888627860783"
      },
      "geometry": {
        "type": "Point",
        "coordinates": [
          153.69433142006642,
          43.88473695598405
        ]
      }
    }
  ]
}